start=new Date('2022-07-14T00:00:00.000Z').valueOf();
sats=[{"INCLINATION":"53.2158","MEAN_MOTION_DDOT":"0.0000000000000","MEAN_MOTION":"15.08836970","RA_OF_ASC_NODE":"191.1347","CENTER_NAME":"EARTH","RCS_SIZE":"LARGE","PERIAPSIS":"538.258","ECCENTRICITY":"0.00021640","COUNTRY_CODE":"US","MEAN_ANOMALY":"174.5624","OBJECT_TYPE":"PAYLOAD","EPOCH":"2022-07-13T22:00:00.999936","SEMIMAJOR_AXIS":"6917.890","BSTAR":"0.00228950000000","REV_AT_EPOCH":"130","EPHEMERIS_TYPE":"0","OBJECT_ID":"2022-016T","TLE_LINE2":"2 51731  53.2158 191.1347 0002164  56.3588 174.5624 15.08836970  1307","MEAN_ELEMENT_THEORY":"SGP4","MEAN_MOTION_DOT":"0.00036335","FILE":"3513188","NORAD_CAT_ID":"51731","REF_FRAME":"TEME","APOAPSIS":"541.252","CLASSIFICATION_TYPE":"U","TLE_LINE1":"1 51731U 22016T   22194.91667824  .00036335  00000-0  22895-2 0  9997","PERIOD":"95.438","DECAY_DATE":null,"GP_ID":"208068179","LAUNCH_DATE":"2022-02-21","ELEMENT_SET_NO":"999","OBJECT_NAME":"STARLINK-3514","SITE":"AFETR","ARG_OF_PERICENTER":"56.3588","TIME_SYSTEM":"UTC"},{"MEAN_MOTION":"15.08815285","MEAN_MOTION_DDOT":"0.0000000000000","INCLINATION":"53.2164","RA_OF_ASC_NODE":"191.1478","CENTER_NAME":"EARTH","RCS_SIZE":"LARGE","ECCENTRICITY":"0.00020920","COUNTRY_CODE":"US","PERIAPSIS":"538.374","MEAN_ANOMALY":"256.6549","BSTAR":"0.00265360000000","EPOCH":"2022-07-13T22:00:00.999936","SEMIMAJOR_AXIS":"6917.956","OBJECT_TYPE":"PAYLOAD","FILE":"3513188","NORAD_CAT_ID":"51732","MEAN_MOTION_DOT":"0.00042169","MEAN_ELEMENT_THEORY":"SGP4","TLE_LINE2":"2 51732  53.2164 191.1478 0002092  54.3945 256.6549 15.08815285  1309","EPHEMERIS_TYPE":"0","REV_AT_EPOCH":"130","OBJECT_ID":"2022-016U","REF_FRAME":"TEME","APOAPSIS":"541.268","PERIOD":"95.439","TLE_LINE1":"1 51732U 22016U   22194.91667824  .00042169  00000-0  26536-2 0  9996","DECAY_DATE":null,"CLASSIFICATION_TYPE":"U","GP_ID":"208068921","OBJECT_NAME":"STARLINK-3518","LAUNCH_DATE":"2022-02-21","ELEMENT_SET_NO":"999","TIME_SYSTEM":"UTC","ARG_OF_PERICENTER":"54.3945","SITE":"AFETR"},{"GP_ID":"208067178","CLASSIFICATION_TYPE":"U","DECAY_DATE":null,"TLE_LINE1":"1 51733U 22016V   22194.91667824  .00039309  00000-0  24753-2 0  9998","PERIOD":"95.439","SITE":"AFETR","TIME_SYSTEM":"UTC","ARG_OF_PERICENTER":"46.9483","LAUNCH_DATE":"2022-02-21","ELEMENT_SET_NO":"999","OBJECT_NAME":"STARLINK-3525","REF_FRAME":"TEME","APOAPSIS":"541.270","MEAN_ANOMALY":"224.0844","PERIAPSIS":"538.324","COUNTRY_CODE":"US","ECCENTRICITY":"0.00021290","OBJECT_ID":"2022-016V","REV_AT_EPOCH":"130","EPHEMERIS_TYPE":"0","MEAN_ELEMENT_THEORY":"SGP4","TLE_LINE2":"2 51733  53.2156 191.1324 0002129  46.9483 224.0844 15.08823127  1307","FILE":"3513188","NORAD_CAT_ID":"51733","MEAN_MOTION_DOT":"0.00039309","OBJECT_TYPE":"PAYLOAD","SEMIMAJOR_AXIS":"6917.932","EPOCH":"2022-07-13T22:00:00.999936","BSTAR":"0.00247530000000","RA_OF_ASC_NODE":"191.1324","INCLINATION":"53.2156","MEAN_MOTION_DDOT":"0.0000000000000","MEAN_MOTION":"15.08823127","CENTER_NAME":"EARTH","RCS_SIZE":"LARGE"},{"GP_ID":"208067427","TLE_LINE1":"1 51734U 22016W   22194.91667824  .00043294  00000-0  27232-2 0  9992","DECAY_DATE":null,"PERIOD":"95.439","CLASSIFICATION_TYPE":"U","TIME_SYSTEM":"UTC","ARG_OF_PERICENTER":"51.0136","SITE":"AFETR","OBJECT_NAME":"STARLINK-3450","LAUNCH_DATE":"2022-02-21","ELEMENT_SET_NO":"999","REF_FRAME":"TEME","APOAPSIS":"541.047","MEAN_ANOMALY":"319.9248","COUNTRY_CODE":"US","ECCENTRICITY":"0.00017920","PERIAPSIS":"538.568","MEAN_MOTION_DOT":"0.00043294","FILE":"3513188","NORAD_CAT_ID":"51734","TLE_LINE2":"2 51734  53.2145 191.1391 0001792  51.0136 319.9248 15.08819592  1300","MEAN_ELEMENT_THEORY":"SGP4","REV_AT_EPOCH":"130","EPHEMERIS_TYPE":"0","OBJECT_ID":"2022-016W","BSTAR":"0.00272320000000","SEMIMAJOR_AXIS":"6917.943","EPOCH":"2022-07-13T22:00:00.999936","OBJECT_TYPE":"PAYLOAD","RA_OF_ASC_NODE":"191.1391","MEAN_MOTION":"15.08819592","MEAN_MOTION_DDOT":"0.0000000000000","INCLINATION":"53.2145","RCS_SIZE":"LARGE","CENTER_NAME":"EARTH"},{"OBJECT_TYPE":"PAYLOAD","BSTAR":"0.00270860000000","EPOCH":"2022-07-13T22:00:00.999936","SEMIMAJOR_AXIS":"6917.967","MEAN_ELEMENT_THEORY":"SGP4","TLE_LINE2":"2 51735  53.2157 191.1448 0001910  57.0945 273.9438 15.08811816  1304","EPHEMERIS_TYPE":"0","REV_AT_EPOCH":"130","OBJECT_ID":"2022-016X","MEAN_MOTION_DOT":"0.00043050","FILE":"3513188","NORAD_CAT_ID":"51735","ECCENTRICITY":"0.00019100","COUNTRY_CODE":"US","PERIAPSIS":"538.510","MEAN_ANOMALY":"273.9438","RCS_SIZE":"LARGE","CENTER_NAME":"EARTH","INCLINATION":"53.2157","MEAN_MOTION":"15.08811816","MEAN_MOTION_DDOT":"0.0000000000000","RA_OF_ASC_NODE":"191.1448","OBJECT_NAME":"STARLINK-3517","LAUNCH_DATE":"2022-02-21","ELEMENT_SET_NO":"999","SITE":"AFETR","ARG_OF_PERICENTER":"57.0945","TIME_SYSTEM":"UTC","CLASSIFICATION_TYPE":"U","PERIOD":"95.439","TLE_LINE1":"1 51735U 22016X   22194.91667824  .00043050  00000-0  27086-2 0  9990","DECAY_DATE":null,"GP_ID":"208068678","APOAPSIS":"541.153","REF_FRAME":"TEME"},{"RCS_SIZE":"LARGE","CENTER_NAME":"EARTH","RA_OF_ASC_NODE":"191.1387","INCLINATION":"53.2134","MEAN_MOTION_DDOT":"0.0000000000000","MEAN_MOTION":"15.08837001","EPHEMERIS_TYPE":"0","REV_AT_EPOCH":"130","OBJECT_ID":"2022-016Y","MEAN_ELEMENT_THEORY":"SGP4","TLE_LINE2":"2 51736  53.2134 191.1387 0001946  56.8532 354.1871 15.08837001  1307","FILE":"3513188","NORAD_CAT_ID":"51736","MEAN_MOTION_DOT":"0.00012198","OBJECT_TYPE":"PAYLOAD","EPOCH":"2022-07-13T22:00:00.999936","SEMIMAJOR_AXIS":"6917.890","BSTAR":"0.00078320000000","MEAN_ANOMALY":"354.1871","PERIAPSIS":"538.408","ECCENTRICITY":"0.00019460","COUNTRY_CODE":"US","APOAPSIS":"541.101","REF_FRAME":"TEME","SITE":"AFETR","ARG_OF_PERICENTER":"56.8532","TIME_SYSTEM":"UTC","ELEMENT_SET_NO":"999","LAUNCH_DATE":"2022-02-21","OBJECT_NAME":"STARLINK-3447","GP_ID":"208068423","CLASSIFICATION_TYPE":"U","DECAY_DATE":null,"TLE_LINE1":"1 51736U 22016Y   22194.91667824  .00012198  00000-0  78320-3 0  9998","PERIOD":"95.438"},{"RCS_SIZE":"LARGE","CENTER_NAME":"EARTH","RA_OF_ASC_NODE":"191.1404","INCLINATION":"53.2137","MEAN_MOTION_DDOT":"0.0000000000000","MEAN_MOTION":"15.08841261","EPHEMERIS_TYPE":"0","REV_AT_EPOCH":"130","OBJECT_ID":"2022-016Z","TLE_LINE2":"2 51737  53.2137 191.1404 0001766  59.4406 291.5771 15.08841261  1306","MEAN_ELEMENT_THEORY":"SGP4","FILE":"3513188","MEAN_MOTION_DOT":"-0.00002501","NORAD_CAT_ID":"51737","OBJECT_TYPE":"PAYLOAD","SEMIMAJOR_AXIS":"6917.877","EPOCH":"2022-07-13T22:00:00.999936","BSTAR":"-0.00013906000000","MEAN_ANOMALY":"291.5771","PERIAPSIS":"538.520","COUNTRY_CODE":"US","ECCENTRICITY":"0.00017660","APOAPSIS":"540.963","REF_FRAME":"TEME","SITE":"AFETR","ARG_OF_PERICENTER":"59.4406","TIME_SYSTEM":"UTC","ELEMENT_SET_NO":"999","LAUNCH_DATE":"2022-02-21","OBJECT_NAME":"STARLINK-3509","GP_ID":"208067677","CLASSIFICATION_TYPE":"U","DECAY_DATE":null,"TLE_LINE1":"1 51737U 22016Z   22194.91667824 -.00002501  00000-0 -13906-3 0  9997","PERIOD":"95.437"},{"SITE":"AFETR","TIME_SYSTEM":"UTC","ARG_OF_PERICENTER":"51.3666","OBJECT_NAME":"STARLINK-3515","ELEMENT_SET_NO":"999","LAUNCH_DATE":"2022-02-21","GP_ID":"208067926","CLASSIFICATION_TYPE":"U","DECAY_DATE":null,"TLE_LINE1":"1 51738U 22016AA  22194.91667824  .00038707  00000-0  24377-2 0  9996","PERIOD":"95.438","APOAPSIS":"541.262","REF_FRAME":"TEME","TLE_LINE2":"2 51738  53.2146 191.1387 0002131  51.3666  39.5315 15.08826112  1305","MEAN_ELEMENT_THEORY":"SGP4","EPHEMERIS_TYPE":"0","REV_AT_EPOCH":"130","OBJECT_ID":"2022-016AA","FILE":"3513188","MEAN_MOTION_DOT":"0.00038707","NORAD_CAT_ID":"51738","OBJECT_TYPE":"PAYLOAD","BSTAR":"0.00243770000000","SEMIMAJOR_AXIS":"6917.923","EPOCH":"2022-07-13T22:00:00.999936","MEAN_ANOMALY":"39.5315","ECCENTRICITY":"0.00021310","COUNTRY_CODE":"US","PERIAPSIS":"538.314","RCS_SIZE":"LARGE","CENTER_NAME":"EARTH","RA_OF_ASC_NODE":"191.1387","INCLINATION":"53.2146","MEAN_MOTION":"15.08826112","MEAN_MOTION_DDOT":"0.0000000000000"},{"DECAY_DATE":null,"TLE_LINE1":"1 51739U 22016AB  22194.91667824  .00029449  00000-0  18611-2 0  9994","PERIOD":"95.438","CLASSIFICATION_TYPE":"U","GP_ID":"208068180","OBJECT_NAME":"STARLINK-3516","ELEMENT_SET_NO":"999","LAUNCH_DATE":"2022-02-21","ARG_OF_PERICENTER":"53.4922","TIME_SYSTEM":"UTC","SITE":"AFETR","REF_FRAME":"TEME","APOAPSIS":"540.921","COUNTRY_CODE":"US","ECCENTRICITY":"0.00016650","PERIAPSIS":"538.617","MEAN_ANOMALY":"337.5497","BSTAR":"0.00186110000000","SEMIMAJOR_AXIS":"6917.904","EPOCH":"2022-07-13T22:00:00.999936","OBJECT_TYPE":"PAYLOAD","MEAN_MOTION_DOT":"0.00029449","FILE":"3513188","NORAD_CAT_ID":"51739","MEAN_ELEMENT_THEORY":"SGP4","TLE_LINE2":"2 51739  53.2149 191.1376 0001665  53.4922 337.5497 15.08832229  1304","EPHEMERIS_TYPE":"0","REV_AT_EPOCH":"130","OBJECT_ID":"2022-016AB","MEAN_MOTION":"15.08832229","MEAN_MOTION_DDOT":"0.0000000000000","INCLINATION":"53.2149","RA_OF_ASC_NODE":"191.1376","CENTER_NAME":"EARTH","RCS_SIZE":"LARGE"},{"REV_AT_EPOCH":"130","OBJECT_ID":"2022-016AC","EPHEMERIS_TYPE":"0","MEAN_ELEMENT_THEORY":"SGP4","TLE_LINE2":"2 51740  53.2146 191.1383 0001685  63.0982  67.9430 15.08815004  1309","FILE":"3513188","NORAD_CAT_ID":"51740","MEAN_MOTION_DOT":"0.00037139","OBJECT_TYPE":"PAYLOAD","EPOCH":"2022-07-13T22:00:00.999936","SEMIMAJOR_AXIS":"6917.957","BSTAR":"0.00234090000000","MEAN_ANOMALY":"67.9430","PERIAPSIS":"538.656","ECCENTRICITY":"0.00016850","COUNTRY_CODE":"US","RCS_SIZE":"LARGE","CENTER_NAME":"EARTH","RA_OF_ASC_NODE":"191.1383","INCLINATION":"53.2146","MEAN_MOTION_DDOT":"0.0000000000000","MEAN_MOTION":"15.08815004","SITE":"AFETR","ARG_OF_PERICENTER":"63.0982","TIME_SYSTEM":"UTC","ELEMENT_SET_NO":"999","LAUNCH_DATE":"2022-02-21","OBJECT_NAME":"STARLINK-3500","GP_ID":"208068922","CLASSIFICATION_TYPE":"U","TLE_LINE1":"1 51740U 22016AC  22194.91667824  .00037139  00000-0  23409-2 0  9992","DECAY_DATE":null,"PERIOD":"95.439","APOAPSIS":"540.987","REF_FRAME":"TEME"}];
